{
    "links": {
        "self": "http://www.neowsapp.com/rest/v1/neo/54016946?api_key=iIulBulltgU6a56xZRHN4H3l9WmuAYTsLGpBGhQ2"
    },
    "id": "54016946",
    "neo_reference_id": "54016946",
    "name": "(2020 JA)",
    "designation": "2020 JA",
    "nasa_jpl_url": "http://ssd.jpl.nasa.gov/sbdb.cgi?sstr=54016946",
    "absolute_magnitude_h": 27.214,
    "estimated_diameter": {
        "kilometers": {
            "estimated_diameter_min": 0.009588595,
            "estimated_diameter_max": 0.0214407503
        },
        "meters": {
            "estimated_diameter_min": 9.5885950261,
            "estimated_diameter_max": 21.4407502871
        },
        "miles": {
            "estimated_diameter_min": 0.0059580749,
            "estimated_diameter_max": 0.0133226604
        },
        "feet": {
            "estimated_diameter_min": 31.4586461055,
            "estimated_diameter_max": 70.3436711719
        }
    },
    "is_potentially_hazardous_asteroid": false,
    "close_approach_data": [
        {
            "close_approach_date": "2020-05-03",
            "close_approach_date_full": "2020-May-03 16:32",
            "epoch_date_close_approach": 1588523520000,
            "relative_velocity": {
                "kilometers_per_second": "20.9472259893",
                "kilometers_per_hour": "75410.0135614213",
                "miles_per_hour": "46856.8498154287"
            },
            "miss_distance": {
                "astronomical": "0.0032127518",
                "lunar": "1.2497604502",
                "kilometers": "480620.826118666",
                "miles": "298643.9330469508"
            },
            "orbiting_body": "Moon"
        },
        {
            "close_approach_date": "2020-05-03",
            "close_approach_date_full": "2020-May-03 20:01",
            "epoch_date_close_approach": 1588536060000,
            "relative_velocity": {
                "kilometers_per_second": "20.2766038859",
                "kilometers_per_hour": "72995.7739894189",
                "miles_per_hour": "45356.7352324809"
            },
            "miss_distance": {
                "astronomical": "0.0015979853",
                "lunar": "0.6216162817",
                "kilometers": "239055.197171311",
                "miles": "148542.0115376518"
            },
            "orbiting_body": "Earth"
        },
        {
            "close_approach_date": "2073-02-08",
            "close_approach_date_full": "2073-Feb-08 14:50",
            "epoch_date_close_approach": 3253791000000,
            "relative_velocity": {
                "kilometers_per_second": "8.9078489798",
                "kilometers_per_hour": "32068.2563271216",
                "miles_per_hour": "19925.9673828162"
            },
            "miss_distance": {
                "astronomical": "0.5980518207",
                "lunar": "232.6421582523",
                "kilometers": "89467278.526341909",
                "miles": "55592389.0229359842"
            },
            "orbiting_body": "Juptr"
        }
    ],
    "orbital_data": {
        "orbit_id": "3",
        "orbit_determination_date": "2020-05-05 06:01:58",
        "first_observation_date": "2020-05-01",
        "last_observation_date": "2020-05-03",
        "data_arc_in_days": 2,
        "observations_used": 31,
        "orbit_uncertainty": "7",
        "minimum_orbit_intersection": ".000360137",
        "jupiter_tisserand_invariant": "2.636",
        "epoch_osculation": "2459000.5",
        "eccentricity": ".771414037421371",
        "semi_major_axis": "3.151657274641168",
        "inclination": "5.886435029685545",
        "ascending_node_longitude": "43.87002697344746",
        "orbital_period": "2043.65180532968",
        "perihelion_distance": ".7204246118417897",
        "perihelion_argument": "249.6525459163372",
        "aphelion_distance": "5.582889937440546",
        "perihelion_time": "2459014.806094777798",
        "mean_anomaly": "357.4799062606576",
        "mean_motion": ".1761552526027912",
        "equinox": "J2000",
        "orbit_class": {
            "orbit_class_type": "APO",
            "orbit_class_description": "Near-Earth asteroid orbits which cross the Earth’s orbit similar to that of 1862 Apollo",
            "orbit_class_range": "a (semi-major axis) > 1.0 AU; q (perihelion) < 1.017 AU"
        }
    },
    "is_sentry_object": false
}